NOAA 15                 
1 25338U 98030A   19360.55765132  .00000030  00000-0  31135-4 0  9994
2 25338  98.7331  21.3488 0011189  52.2060 308.0131 14.25944961124452
NOAA 18                 
1 28654U 05018A   19360.54446826  .00000060  00000-0  57459-4 0  9997
2 28654  99.0709  50.1296 0014168   4.7401 355.3902 14.12476970752451
METOP-A                 
1 29499U 06044A   19359.89479987  .00000008  00000-0  22888-4 0  9995
2 29499  98.5498  47.4308 0001536  80.5433  92.2609 14.21491944683905
NOAA 19                 
1 33591U 09005A   19360.53681208 -.00000003  00000-0  23586-4 0  9999
2 33591  99.1915 356.3932 0013608 200.1261 159.9375 14.12388996560841
METOP-B                 
1 38771U 12049A   19359.86628124  .00000002  00000-0  20923-4 0  9998
2 38771  98.7185  56.6133 0001860 124.6672 355.6311 14.21482042377226
SARAL                   
1 39086U 13009A   19360.12783974 -.00000020  00000-0  86811-5 0  9991
2 39086  98.5387 183.3719 0001876  71.1649 288.9738 14.32017142357050
METOP-C                 
1 43689U 18087A   19359.81584353 -.00000044  00000-0  00000+0 0  9996
2 43689  98.7242  56.7168 0003906 121.9586 238.1965 14.21688267 58784
